mes,serial_number,state,mcc,descript,city,zip_code,lat,long,corporation,business,branch_office,qty
01/08/24,390-220-101,CIUDAD DE MÉXICO,4225,#REF!,CIUDAD DE MEXICO,11560,19.4343,-99.1933,PAGO FACIL,INVENTARIO,EXPERT MARKETER,8
01/08/24,451-705-312,CIUDAD DE MÉXICO,4225,#REF!,CIUDAD DE MEXICO,11560,19.4343,-99.1933,PAGO FACIL,INVENTARIO,RICCI TI SMARTBUSINESS,9
01/08/24,806-826-194,YUCATAN,4468,#REF!,MERIDA,97000,20.9892,-89.7564,GLOBAL PAYMENTS TECHNOLOGY MEXICO,NAVIERA M-29,WINJET CZM BLUMON,1445
01/08/24,806-826-174,YUCATAN,4468,#REF!,MERIDA,97000,20.9892,-89.7564,GLOBAL PAYMENTS TECHNOLOGY MEXICO,NAVIERA M-29,WINJET CZM BLUMON,629
01/08/24,806-826-192,YUCATAN,4468,#REF!,MERIDA,97000,20.9892,-89.7564,GLOBAL PAYMENTS TECHNOLOGY MEXICO,NAVIERA M-29,WINJET PC BLUMON,65
01/08/24,806-826-187,YUCATAN,4468,#REF!,MERIDA,97000,20.9892,-89.7564,GLOBAL PAYMENTS TECHNOLOGY MEXICO,NAVIERA M-29,WINJET PC BLUMON,351
01/08/24,806-826-166,YUCATAN,4468,#REF!,MERIDA,97000,20.9892,-89.7564,GLOBAL PAYMENTS TECHNOLOGY MEXICO,NAVIERA M-29,WINJET PC BLUMON,523
01/08/24,806-766-919,YUCATAN,4468,#REF!,MERIDA,97000,20.9892,-89.7564,GLOBAL PAYMENTS TECHNOLOGY MEXICO,NAVIERA M-29,WINJET PC BLUMON,44
01/08/24,806-826-191,YUCATAN,4468,#REF!,MERIDA,97000,20.9892,-89.7564,GLOBAL PAYMENTS TECHNOLOGY MEXICO,NAVIERA M-29,WINJET PC BLUMON,396
01/08/24,806-826-183,YUCATAN,4468,#REF!,MERIDA,97000,20.9892,-89.7564,GLOBAL PAYMENTS TECHNOLOGY MEXICO,NAVIERA M-29,WINJET PC BLUMON,407
01/08/24,806-826-177,YUCATAN,4468,#REF!,MERIDA,97000,20.9892,-89.7564,GLOBAL PAYMENTS TECHNOLOGY MEXICO,NAVIERA M-29,WINJET CZM BLUMON,2016
01/08/24,275-487-128,CIUDAD DE MÉXICO,4829,#REF!,CIUDAD DE MEXICO,2410,19.5034,-99.2095,BLUMON PAY DEMO,PRUEBAS LACPI BP,-,4
01/08/24,9.83E+13,CIUDAD DE MÉXICO,5045,#REF!,CIUDAD DE MEXICO,6030,19.4364,-99.1553,TERMINAL TOTAL,PISPI SECRET CLOSET,-,60
01/08/24,9.83E+13,CIUDAD DE MÉXICO,5045,#REF!,CIUDAD DE MEXICO,6030,19.4364,-99.1553,TERMINAL TOTAL,SWING PADEL,-,61
01/08/24,9.83E+13,CIUDAD DE MÉXICO,5045,#REF!,CIUDAD DE MEXICO,6030,19.4364,-99.1553,TERMINAL TOTAL,ALGODONEROS SHOP,-,280
01/08/24,390-160-522,BAJA CALIFORNIA,5047,#REF!,TIJUANA,22647,32.466,-116.6881,PAGO FACIL,VIDA ABUELO TIJUANA,-,2
01/08/24,390-160-540,NUEVO LEON,5047,#REF!,SAN NICOLAS DE LOS GARZA,66417,25.7625,-100.2737,PAGO FACIL,VIDA ABUELO SAN NICOLAS,-,2
01/08/24,9.83E+13,CIUDAD DE MÉXICO,5065,#REF!,CIUDAD DE MEXICO,11560,19.4343,-99.1933,PAGO DE VOLADA,COACOMER,-,1
01/08/24,451-587-263,CIUDAD DE MÉXICO,5192,#REF!,CIUDAD DE MEXICO,5300,19.4407,-99.1088,MONEY GIVER,MONEY GIVER,CERVECERIA TULUM RESTAURANTE,329
01/08/24,451-705-062,CIUDAD DE MÉXICO,5192,#REF!,CIUDAD DE MEXICO,5300,19.4407,-99.1088,MONEY GIVER,MONEY GIVER,-,84
01/08/24,451-589-790,CIUDAD DE MÉXICO,5192,#REF!,CIUDAD DE MEXICO,5300,19.4407,-99.1088,MONEY GIVER,MONEY GIVER,CERVECERIA TULUM TOUR,44
01/08/24,391-105-257,CIUDAD DE MÉXICO,5192,#REF!,CIUDAD DE MEXICO,5300,19.4407,-99.1088,MONEY GIVER,MONEY GIVER,-,2
01/08/24,346-950-346,CIUDAD DE MÉXICO,5192,#REF!,CIUDAD DE MEXICO,5300,19.4407,-99.1088,MONEY GIVER,MONEY GIVER,CERVECERIA TULUM RESTAURANTE,14
01/08/24,391-105-254,CIUDAD DE MÉXICO,5192,#REF!,CIUDAD DE MEXICO,5300,19.4407,-99.1088,MONEY GIVER,MONEY GIVER,CERVECERIA TULUM RESTAURANTE,4
01/08/24,451-587-704,CIUDAD DE MÉXICO,5192,#REF!,CIUDAD DE MEXICO,5300,19.4407,-99.1088,MONEY GIVER,MONEY GIVER,CERVECERIA TULUM DISTRIBUIDORA,1
01/08/24,347-034-528,CIUDAD DE MÉXICO,5192,#REF!,CIUDAD DE MEXICO,5300,19.4407,-99.1088,MONEY GIVER,MONEY GIVER,-,12
01/08/24,450-791-206,CIUDAD DE MÉXICO,5192,#REF!,CIUDAD DE MEXICO,5300,19.4407,-99.1088,MONEY GIVER,MONEY GIVER,CERVECERIA TULUM RESTAURANTE,295
01/08/24,9.83E+13,PUEBLA,5199,#REF!,SAN ANDRES CHOLULA,72820,19.0591,-98.2968,PAGO DE VOLADA,TLALI BUENOS VEGETALES,MARK RYDEN MX,5
01/08/24,9.83E+13,PUEBLA,5199,#REF!,SAN ANDRES CHOLULA,72820,19.0591,-98.2968,PAGO DE VOLADA,TLALI BUENOS VEGETALES,PUERTO VERACRUZ,121
01/08/24,9.83E+13,PUEBLA,5199,#REF!,SAN ANDRES CHOLULA,72820,19.0591,-98.2968,PAGO DE VOLADA,TLALI BUENOS VEGETALES,CHEZ MARIE BISTRO,26
01/08/24,450-103-799,HIDALGO,5300,#REF!,TOLCAYUCA,43873,19.8951,-98.9193,TERMINAL TOTAL,ALQUIMAVI,-,22
01/08/24,450-196-342,HIDALGO,5300,#REF!,TOLCAYUCA,43873,19.8951,-98.9193,TERMINAL TOTAL,EXPERIENCIAS VACACIONES TOUR,-,1
01/08/24,2.76E+17,MEXICO,5411,#REF!,CIUDAD DE MEXICO,1210,19.3741,-99.2563,ONSIGNA,RED KASH,-,19300
01/08/24,2.76E+17,2311,5422,#REF!,CIUDAD DE MEXICO,1210,19.3741,-99.2563,ONSIGNA,AMUCSS,-,10
01/08/24,2.76E+17,2320,5422,#REF!,CIUDAD DE MEXICO,1210,19.3741,-99.2563,ONSIGNA,RED KASH,-,20566
01/08/24,390-219-647,DURANGO,5422,#REF!,GOMEZ PALACIO,35000,25.6894,-103.4861,GLOBAL PAYMENTS TECHNOLOGY MEXICO,SYSTIENDA PRUEBAS,CARNES FINAS TORREON 2,1221
01/08/24,450-791-443,DURANGO,5422,#REF!,GOMEZ PALACIO,35000,25.6894,-103.4861,GLOBAL PAYMENTS TECHNOLOGY MEXICO,SYSTIENDA PRUEBAS,CARNES FINAS GOMEZ 2,118
01/08/24,390-216-777,DURANGO,5422,#REF!,GOMEZ PALACIO,35000,25.6894,-103.4861,GLOBAL PAYMENTS TECHNOLOGY MEXICO,SYSTIENDA PRUEBAS,CARNES FINAS GOMEZ 2,960
01/08/24,346-808-966,CIUDAD DE MÉXICO,5499,#REF!,CIUDAD DE MEXICO,6100,19.4121,-99.1795,KLU TPV,SHOMA HAND ROLL,-,467
01/08/24,450-111-527,CIUDAD DE MÉXICO,5734,#REF!,CIUDAD DE MEXICO,11560,19.4343,-99.1933,PAGO DE VOLADA,PREMIUM SUNGLASSES,-,1
01/08/24,451-396-899,CIUDAD DE MÉXICO,5734,#REF!,CIUDAD DE MEXICO,11560,19.4343,-99.1933,PAGO DE VOLADA,PREMIUM SUNGLASSES,-,5
01/08/24,450-725-004,CIUDAD DE MÉXICO,5734,#REF!,CIUDAD DE MEXICO,11560,19.4343,-99.1933,PAGO DE VOLADA,PREMIUM SUNGLASSES,-,2
01/08/24,450-111-471,CIUDAD DE MÉXICO,5734,#REF!,CIUDAD DE MEXICO,11560,19.4343,-99.1933,PAGO DE VOLADA,PREMIUM SUNGLASSES,-,3
01/08/24,453-793-248,CIUDAD DE MÉXICO,5812,#REF!,CIUDAD DE MEXICO,11510,19.4343,-99.1933,BLUMONPAY AGREGADOR,ACANTO RESTAURANTE,ACANTO MANZANILLO,50
01/08/24,453-793-364,CIUDAD DE MÉXICO,5812,#REF!,CIUDAD DE MEXICO,11510,19.4343,-99.1933,BLUMONPAY AGREGADOR,ACANTO RESTAURANTE,ACANTO MANZANILLO,127
01/08/24,452-942-337,CIUDAD DE MÉXICO,5812,#REF!,CIUDAD DE MEXICO,11560,19.4343,-99.1933,BANCA MIFEL,PRUEBAS BCA MIFEL,-,1
01/08/24,346-924-388,ESTADO DE MÉXICO,5812,#REF!,CUAUTITLAN IZCALLI,54763,19.612,-99.1965,KLU TPV,TERRAZAS PERINORTE,-,5
01/08/24,391-105-262,NUEVO LEON,5812,#REF!,SAN NICOLAS DE LOS GARZA,66428,25.7561,-100.306,PARRILLA LA CABRERA,MOLE NEGRO,CARDAMOMO CENOTE,132
01/08/24,452-709-417,NUEVO LEON,5812,#REF!,SAN NICOLAS DE LOS GARZA,66428,25.7561,-100.306,PARRILLA LA CABRERA,MOLE NEGRO,SOY TULUM BEACH CLUB,120
01/08/24,390-160-515,NUEVO LEON,5812,#REF!,SAN NICOLAS DE LOS GARZA,66428,25.7561,-100.306,PARRILLA LA CABRERA,MOLE NEGRO,RESTAURANTE ESCAMA,56
01/08/24,450-103-187,JALISCO,5813,#REF!,ZAPOPAN,45180,20.6715,-103.6532,PAGO DE VOLADA,DAARZITTEN,-,8
01/08/24,450-393-509,CIUDAD DE MÉXICO,5814,#REF!,CIUDAD DE MEXICO,3100,19.3831,-99.1743,BLUMONPAY AGREGADOR,LA LONJA LIGERA,-,2
01/08/24,453-684-451,CIUDAD DE MÉXICO,5814,#REF!,CIUDAD DE MEXICO,3100,19.3831,-99.1743,BLUMONPAY AGREGADOR,LA LONJA LIGERA,-,3
01/08/24,451-395-446,CIUDAD DE MÉXICO,5814,#REF!,CIUDAD DE MEXICO,3100,19.3831,-99.1743,BLUMONPAY AGREGADOR,LA LONJA LIGERA,-,225
01/08/24,346-929-871,CIUDAD DE MÉXICO,5814,#REF!,CIUDAD DE MEXICO,3100,19.3831,-99.1743,BLUMONPAY AGREGADOR,LA LONJA LIGERA,-,191
01/08/24,391-105-261,CIUDAD DE MÉXICO,5814,#REF!,CIUDAD DE MEXICO,3100,19.3831,-99.1743,BLUMONPAY AGREGADOR,LA LONJA LIGERA,-,66
01/08/24,391-105-261,CIUDAD DE MÉXICO,5814,#REF!,CIUDAD DE MEXICO,3100,19.3831,-99.1743,ANDROS GONZALEZ,LA LONJA LIGERA,-,29
01/08/24,453-793-312,CIUDAD DE MÉXICO,5814,#REF!,CIUDAD DE MEXICO,4100,19.4206,-99.1815,CQP,GRUPO SEPTIMO,ALTAVISTA,7
01/08/24,453-793-279,CIUDAD DE MÉXICO,5814,#REF!,CIUDAD DE MEXICO,4100,19.4206,-99.1815,CQP,GRUPO SEPTIMO,TACOSMICO,6
01/08/24,453-793-356,CIUDAD DE MÉXICO,5814,#REF!,CIUDAD DE MEXICO,4100,19.4206,-99.1815,CQP,GRUPO SEPTIMO,JUPITER,5
01/08/24,453-793-196,CIUDAD DE MÉXICO,5814,#REF!,CIUDAD DE MEXICO,4100,19.4206,-99.1815,CQP,GRUPO SEPTIMO,SEPCOYO,1
01/08/24,453-793-275,CIUDAD DE MÉXICO,5814,#REF!,CIUDAD DE MEXICO,4100,19.4206,-99.1815,CQP,GRUPO SEPTIMO,SEPCOYO,5
01/08/24,453-793-130,CIUDAD DE MÉXICO,5814,#REF!,CIUDAD DE MEXICO,4100,19.4206,-99.1815,CQP,GRUPO SEPTIMO,JUPITER,5
01/08/24,453-793-266,CIUDAD DE MÉXICO,5814,#REF!,CIUDAD DE MEXICO,4100,19.4206,-99.1815,CQP,GRUPO SEPTIMO,MEZCALERO,4
01/08/24,453-793-357,CIUDAD DE MÉXICO,5814,#REF!,CIUDAD DE MEXICO,4100,19.4206,-99.1815,CQP,GRUPO SEPTIMO,ALTAVISTA,1
01/08/24,452-709-927,CIUDAD DE MÉXICO,5814,#REF!,CIUDAD DE MEXICO,5348,19.3571,-99.2868,CQP,PARRILLA LA CABRERA DE MTY,TONAL 1,240
01/08/24,453-686-464,CIUDAD DE MÉXICO,5814,#REF!,CIUDAD DE MEXICO,5348,19.3571,-99.2868,PAGO DE VOLADA,PARRILLA LA CABRERA DE MTY,TONAL 1,154
01/08/24,452-969-138,CIUDAD DE MÉXICO,5814,#REF!,CIUDAD DE MEXICO,5348,19.3571,-99.2868,CQP,PARRILLA LA CABRERA DE MTY,TONAL 1,162
01/08/24,450-108-831,CIUDAD DE MÉXICO,5814,#REF!,CIUDAD DE MEXICO,5348,19.3571,-99.2868,CQP,PARRILLA LA CABRERA DE MTY,TONAL 1,201
01/08/24,453-686-081,CIUDAD DE MÉXICO,5814,#REF!,CIUDAD DE MEXICO,5348,19.3571,-99.2868,PARRILLA LA CABRERA,GRUPO SANTINO,MANSION,2
01/08/24,9.83E+13,CIUDAD DE MÉXICO,5814,#REF!,CIUDAD DE MEXICO,5348,19.3571,-99.2868,PAGO DE VOLADA,PARRILLA LA CABRERA DE MTY,COMERCIALIZADORA L3P,10
01/08/24,452-857-146,CIUDAD DE MÉXICO,5814,#REF!,CIUDAD DE MEXICO,5348,19.3571,-99.2868,PAGO DE VOLADA,PARRILLA LA CABRERA DE MTY,DEPARTAMENTO 2,464
01/08/24,452-969-124,CIUDAD DE MÉXICO,5814,#REF!,CIUDAD DE MEXICO,5348,19.3571,-99.2868,PARRILLA LA CABRERA,PARRILLA LA CABRERA DE MTY,TONAL 1,170
01/08/24,453-685-881,CIUDAD DE MÉXICO,5814,#REF!,CIUDAD DE MEXICO,5348,19.3571,-99.2868,PARRILLA LA CABRERA,PARRILLA LA CABRERA DE MTY,DEPARTAMENTO 1,462
01/08/24,9.83E+13,CIUDAD DE MÉXICO,5814,#REF!,CIUDAD DE MEXICO,5348,19.3571,-99.2868,PAGO DE VOLADA,PARRILLA LA CABRERA DE MTY,REPUBLICA CHIHUAHUA,78
01/08/24,346-040-825,CIUDAD DE MÉXICO,5814,#REF!,CIUDAD DE MEXICO,5348,19.3571,-99.2868,PARRILLA LA CABRERA,PARRILLA LA CABRERA DE MTY,TONAL 1,94
01/08/24,452-709-401,CIUDAD DE MÉXICO,5814,#REF!,CIUDAD DE MEXICO,5348,19.3571,-99.2868,PAGO DE VOLADA,PARRILLA LA CABRERA DE MTY,TONAL 1,81
01/08/24,453-685-868,CIUDAD DE MÉXICO,5814,#REF!,CIUDAD DE MEXICO,5348,19.3571,-99.2868,CQP,PARRILLA LA CABRERA DE MTY,TONAL 1,214
01/08/24,453-686-109,CIUDAD DE MÉXICO,5814,#REF!,CIUDAD DE MEXICO,5348,19.3571,-99.2868,PARRILLA LA CABRERA,LA PIZZINE,LA PIZZINE TRIA,129
01/08/24,450-108-831,CIUDAD DE MÉXICO,5814,#REF!,CIUDAD DE MEXICO,5348,19.3571,-99.2868,PARRILLA LA CABRERA,PARRILLA LA CABRERA DE MTY,TONAL 1,196
01/08/24,453-684-250,CIUDAD DE MÉXICO,5814,#REF!,CIUDAD DE MEXICO,5348,19.3571,-99.2868,PARRILLA LA CABRERA,GRUPO SANTINO,TERRAZA,2
01/08/24,9.83E+13,CIUDAD DE MÉXICO,5814,#REF!,CIUDAD DE MEXICO,5348,19.3571,-99.2868,CQP,PARRILLA LA CABRERA DE MTY,BBT MID,35
01/08/24,452-709-400,CIUDAD DE MÉXICO,5814,#REF!,CIUDAD DE MEXICO,5348,19.3571,-99.2868,PARRILLA LA CABRERA,PARRILLA LA CABRERA DE MTY,TONAL 1,17
01/08/24,452-969-133,CIUDAD DE MÉXICO,5814,#REF!,CIUDAD DE MEXICO,5348,19.3571,-99.2868,PAGO DE VOLADA,PARRILLA LA CABRERA DE MTY,DEPARTAMENTO 1,240
01/08/24,9.83E+13,CIUDAD DE MÉXICO,5814,#REF!,CIUDAD DE MEXICO,5348,19.3571,-99.2868,CQP,PARRILLA LA CABRERA DE MTY,COMERCIALIZADORA L3P,3
01/08/24,452-969-124,CIUDAD DE MÉXICO,5814,#REF!,CIUDAD DE MEXICO,5348,19.3571,-99.2868,CQP,PARRILLA LA CABRERA DE MTY,TONAL 1,193
01/08/24,9.83E+13,CIUDAD DE MÉXICO,5814,#REF!,CIUDAD DE MEXICO,5348,19.3571,-99.2868,CQP,PARRILLA LA CABRERA DE MTY,REPUBLICA CHIHUAHUA,79
01/08/24,450-625-076,CIUDAD DE MÉXICO,5814,#REF!,CIUDAD DE MEXICO,5348,19.3571,-99.2868,PARRILLA LA CABRERA,GRUPO SANTINO,SANTINO PLAYA REGUETON,4
01/08/24,452-969-186,CIUDAD DE MÉXICO,5814,#REF!,CIUDAD DE MEXICO,5348,19.3571,-99.2868,PARRILLA LA CABRERA,PARRILLA LA CABRERA DE MTY,TONAL 1,71
01/08/24,9.83E+13,CIUDAD DE MÉXICO,5814,#REF!,CIUDAD DE MEXICO,5348,19.3571,-99.2868,PARRILLA LA CABRERA,PARRILLA LA CABRERA DE MTY,COMERCIALIZADORA L3P,2
01/08/24,452-969-186,CIUDAD DE MÉXICO,5814,#REF!,CIUDAD DE MEXICO,5348,19.3571,-99.2868,PAGO DE VOLADA,PARRILLA LA CABRERA DE MTY,TONAL 1,56
01/08/24,453-686-480,CIUDAD DE MÉXICO,5814,#REF!,CIUDAD DE MEXICO,5348,19.3571,-99.2868,PAGO DE VOLADA,PARRILLA LA CABRERA DE MTY,DEPARTAMENTO 1,453
01/08/24,453-685-869,CIUDAD DE MÉXICO,5814,#REF!,CIUDAD DE MEXICO,5348,19.3571,-99.2868,PAGO DE VOLADA,PARRILLA LA CABRERA DE MTY,TONAL 1,27
01/08/24,9.83E+13,CIUDAD DE MÉXICO,5814,#REF!,CIUDAD DE MEXICO,5348,19.3571,-99.2868,CQP,PARRILLA LA CABRERA DE MTY,DISAPA,3
01/08/24,453-686-421,CIUDAD DE MÉXICO,5814,#REF!,CIUDAD DE MEXICO,5348,19.3571,-99.2868,PARRILLA LA CABRERA,PARRILLA LA CABRERA DE MTY,DEPARTAMENTO 2,312
01/08/24,9.83E+13,CIUDAD DE MÉXICO,5814,#REF!,CIUDAD DE MEXICO,5348,19.3571,-99.2868,CQP,PARRILLA LA CABRERA DE MTY,COMERCIALIZADORA L3P,5
01/08/24,452-709-401,CIUDAD DE MÉXICO,5814,#REF!,CIUDAD DE MEXICO,5348,19.3571,-99.2868,CQP,PARRILLA LA CABRERA DE MTY,TONAL 1,163
01/08/24,9.83E+13,CIUDAD DE MÉXICO,5814,#REF!,CIUDAD DE MEXICO,5348,19.3571,-99.2868,CQP,PARRILLA LA CABRERA DE MTY,REPUBLICA CHIHUAHUA,48
01/08/24,453-684-451,CIUDAD DE MÉXICO,5814,#REF!,CIUDAD DE MEXICO,5348,19.3571,-99.2868,PARRILLA LA CABRERA,PARRILLA LA CABRERA DE MTY,TONAL 1,197
01/08/24,452-969-124,CIUDAD DE MÉXICO,5814,#REF!,CIUDAD DE MEXICO,5348,19.3571,-99.2868,PAGO DE VOLADA,PARRILLA LA CABRERA DE MTY,TONAL 1,66
01/08/24,452-969-138,CIUDAD DE MÉXICO,5814,#REF!,CIUDAD DE MEXICO,5348,19.3571,-99.2868,PAGO DE VOLADA,PARRILLA LA CABRERA DE MTY,TONAL 1,173
01/08/24,452-857-146,CIUDAD DE MÉXICO,5814,#REF!,CIUDAD DE MEXICO,5348,19.3571,-99.2868,PARRILLA LA CABRERA,PARRILLA LA CABRERA DE MTY,DEPARTAMENTO 2,572
01/08/24,9.83E+13,CIUDAD DE MÉXICO,5814,#REF!,CIUDAD DE MEXICO,5348,19.3571,-99.2868,PAGO DE VOLADA,PARRILLA LA CABRERA DE MTY,REPUBLICA CHIHUAHUA,60
01/08/24,346-040-825,CIUDAD DE MÉXICO,5814,#REF!,CIUDAD DE MEXICO,5348,19.3571,-99.2868,PAGO DE VOLADA,PARRILLA LA CABRERA DE MTY,TONAL 1,55
01/08/24,346-040-825,CIUDAD DE MÉXICO,5814,#REF!,CIUDAD DE MEXICO,5348,19.3571,-99.2868,CQP,PARRILLA LA CABRERA DE MTY,TONAL 1,23
01/08/24,453-686-480,CIUDAD DE MÉXICO,5814,#REF!,CIUDAD DE MEXICO,5348,19.3571,-99.2868,PARRILLA LA CABRERA,PARRILLA LA CABRERA DE MTY,DEPARTAMENTO 1,294
01/08/24,450-103-351,CIUDAD DE MÉXICO,5814,#REF!,CIUDAD DE MEXICO,5348,19.3571,-99.2868,CQP,PARRILLA LA CABRERA DE MTY,TONAL 1,179
01/08/24,452-709-986,CIUDAD DE MÉXICO,5814,#REF!,CIUDAD DE MEXICO,5348,19.3571,-99.2868,PARRILLA LA CABRERA,PARRILLA LA CABRERA DE MTY,TONAL 1,67
01/08/24,453-685-853,CIUDAD DE MÉXICO,5814,#REF!,CIUDAD DE MEXICO,5348,19.3571,-99.2868,PARRILLA LA CABRERA,PARRILLA LA CABRERA DE MTY,DEPARTAMENTO 1,83
01/08/24,453-685-939,CIUDAD DE MÉXICO,5814,#REF!,CIUDAD DE MEXICO,5348,19.3571,-99.2868,PARRILLA LA CABRERA,PARRILLA LA CABRERA DE MTY,DEPARTAMENTO 2,601
01/08/24,452-969-186,CIUDAD DE MÉXICO,5814,#REF!,CIUDAD DE MEXICO,5348,19.3571,-99.2868,CQP,PARRILLA LA CABRERA DE MTY,TONAL 1,196
01/08/24,453-686-030,CIUDAD DE MÉXICO,5814,#REF!,CIUDAD DE MEXICO,5348,19.3571,-99.2868,PARRILLA LA CABRERA,GRUPO SANTINO,TERRAZA,2
01/08/24,452-709-927,CIUDAD DE MÉXICO,5814,#REF!,CIUDAD DE MEXICO,5348,19.3571,-99.2868,PAGO DE VOLADA,PARRILLA LA CABRERA DE MTY,TONAL 1,105
01/08/24,452-968-260,CIUDAD DE MÉXICO,5814,#REF!,CIUDAD DE MEXICO,5348,19.3571,-99.2868,PAGO DE VOLADA,PARRILLA LA CABRERA DE MTY,DEPARTAMENTO 1,514
01/08/24,452-857-148,CIUDAD DE MÉXICO,5814,#REF!,CIUDAD DE MEXICO,5348,19.3571,-99.2868,PARRILLA LA CABRERA,GRUPO SANTINO,SPEAK EASY,2
01/08/24,453-685-282,CIUDAD DE MÉXICO,5814,#REF!,CIUDAD DE MEXICO,5348,19.3571,-99.2868,PARRILLA LA CABRERA,PARRILLA LA CABRERA DE MTY,DEPARTAMENTO 1,280
01/08/24,453-685-868,CIUDAD DE MÉXICO,5814,#REF!,CIUDAD DE MEXICO,5348,19.3571,-99.2868,PAGO DE VOLADA,PARRILLA LA CABRERA DE MTY,TONAL 1,68
01/08/24,453-685-929,CIUDAD DE MÉXICO,5814,#REF!,CIUDAD DE MEXICO,5348,19.3571,-99.2868,PAGO DE VOLADA,PARRILLA LA CABRERA DE MTY,TONAL 1,61
01/08/24,9.83E+13,CIUDAD DE MÉXICO,5814,#REF!,CIUDAD DE MEXICO,5348,19.3571,-99.2868,PAGO DE VOLADA,PARRILLA LA CABRERA DE MTY,COMERCIALIZADORA L3P,13
01/08/24,453-685-877,CIUDAD DE MÉXICO,5814,#REF!,CIUDAD DE MEXICO,5348,19.3571,-99.2868,CQP,PARRILLA LA CABRERA DE MTY,TONAL 1,175
01/08/24,453-685-939,CIUDAD DE MÉXICO,5814,#REF!,CIUDAD DE MEXICO,5348,19.3571,-99.2868,PAGO DE VOLADA,PARRILLA LA CABRERA DE MTY,DEPARTAMENTO 2,451
01/08/24,452-709-986,CIUDAD DE MÉXICO,5814,#REF!,CIUDAD DE MEXICO,5348,19.3571,-99.2868,CQP,PARRILLA LA CABRERA DE MTY,TONAL 1,139
01/08/24,452-969-133,CIUDAD DE MÉXICO,5814,#REF!,CIUDAD DE MEXICO,5348,19.3571,-99.2868,PARRILLA LA CABRERA,PARRILLA LA CABRERA DE MTY,DEPARTAMENTO 1,462
01/08/24,453-686-473,CIUDAD DE MÉXICO,5814,#REF!,CIUDAD DE MEXICO,5348,19.3571,-99.2868,PARRILLA LA CABRERA,PARRILLA LA CABRERA DE MTY,DEPARTAMENTO 2,181
01/08/24,453-685-869,CIUDAD DE MÉXICO,5814,#REF!,CIUDAD DE MEXICO,5348,19.3571,-99.2868,PARRILLA LA CABRERA,PARRILLA LA CABRERA DE MTY,TONAL 1,188
01/08/24,9.83E+13,CIUDAD DE MÉXICO,5814,#REF!,CIUDAD DE MEXICO,5348,19.3571,-99.2868,PARRILLA LA CABRERA,COTORRITOS I,COTORRITOS ZONA ROSA,38
01/08/24,452-857-091,CIUDAD DE MÉXICO,5814,#REF!,CIUDAD DE MEXICO,5348,19.3571,-99.2868,PARRILLA LA CABRERA,PARRILLA LA CABRERA DE MTY,DEPARTAMENTO 2,524
01/08/24,453-685-868,CIUDAD DE MÉXICO,5814,#REF!,CIUDAD DE MEXICO,5348,19.3571,-99.2868,PARRILLA LA CABRERA,PARRILLA LA CABRERA DE MTY,TONAL 1,69
01/08/24,451-795-503,CIUDAD DE MÉXICO,5814,#REF!,CIUDAD DE MEXICO,5348,19.3571,-99.2868,PARRILLA LA CABRERA,PARRILLA LA CABRERA DE MTY,DEPARTAMENTO 1,336
01/08/24,452-709-400,CIUDAD DE MÉXICO,5814,#REF!,CIUDAD DE MEXICO,5348,19.3571,-99.2868,CQP,PARRILLA LA CABRERA DE MTY,TONAL 1,146
01/08/24,452-969-130,CIUDAD DE MÉXICO,5814,#REF!,CIUDAD DE MEXICO,5348,19.3571,-99.2868,PARRILLA LA CABRERA,PARRILLA LA CABRERA DE MTY,DEPARTAMENTO 1,212
01/08/24,453-686-464,CIUDAD DE MÉXICO,5814,#REF!,CIUDAD DE MEXICO,5348,19.3571,-99.2868,PARRILLA LA CABRERA,PARRILLA LA CABRERA DE MTY,TONAL 1,122
01/08/24,452-709-474,CIUDAD DE MÉXICO,5814,#REF!,CIUDAD DE MEXICO,5348,19.3571,-99.2868,PARRILLA LA CABRERA,LA PIZZINE,LA PIZZINE VELETA,183
01/08/24,452-709-423,CIUDAD DE MÉXICO,5814,#REF!,CIUDAD DE MEXICO,5348,19.3571,-99.2868,PARRILLA LA CABRERA,PARRILLA LA CABRERA DE MTY,DEPARTAMENTO 2,318
01/08/24,452-709-927,CIUDAD DE MÉXICO,5814,#REF!,CIUDAD DE MEXICO,5348,19.3571,-99.2868,PARRILLA LA CABRERA,PARRILLA LA CABRERA DE MTY,TONAL 1,3
01/08/24,453-685-833,CIUDAD DE MÉXICO,5814,#REF!,CIUDAD DE MEXICO,5348,19.3571,-99.2868,PAGO DE VOLADA,PARRILLA LA CABRERA DE MTY,DEPARTAMENTO 2,289
01/08/24,453-686-473,CIUDAD DE MÉXICO,5814,#REF!,CIUDAD DE MEXICO,5348,19.3571,-99.2868,PAGO DE VOLADA,PARRILLA LA CABRERA DE MTY,DEPARTAMENTO 2,214
01/08/24,452-969-130,CIUDAD DE MÉXICO,5814,#REF!,CIUDAD DE MEXICO,5348,19.3571,-99.2868,PAGO DE VOLADA,PARRILLA LA CABRERA DE MTY,DEPARTAMENTO 1,71
01/08/24,453-686-153,CIUDAD DE MÉXICO,5814,#REF!,CIUDAD DE MEXICO,5348,19.3571,-99.2868,PARRILLA LA CABRERA,GRUPO SANTINO,SANTINO TULUM,2
01/08/24,453-686-088,CIUDAD DE MÉXICO,5814,#REF!,CIUDAD DE MEXICO,5348,19.3571,-99.2868,PARRILLA LA CABRERA,LA PIZZINE,LA PIZZINE TRIA,77
01/08/24,450-103-351,CIUDAD DE MÉXICO,5814,#REF!,CIUDAD DE MEXICO,5348,19.3571,-99.2868,PAGO DE VOLADA,PARRILLA LA CABRERA DE MTY,TONAL 1,54
01/08/24,9.83E+13,CIUDAD DE MÉXICO,5814,#REF!,CIUDAD DE MEXICO,5348,19.3571,-99.2868,PAGO DE VOLADA,PARRILLA LA CABRERA DE MTY,COMERCIALIZADORA L3P,4
01/08/24,453-686-421,CIUDAD DE MÉXICO,5814,#REF!,CIUDAD DE MEXICO,5348,19.3571,-99.2868,PAGO DE VOLADA,PARRILLA LA CABRERA DE MTY,DEPARTAMENTO 2,276
01/08/24,452-968-260,CIUDAD DE MÉXICO,5814,#REF!,CIUDAD DE MEXICO,5348,19.3571,-99.2868,PARRILLA LA CABRERA,PARRILLA LA CABRERA DE MTY,DEPARTAMENTO 1,394
01/08/24,451-795-503,CIUDAD DE MÉXICO,5814,#REF!,CIUDAD DE MEXICO,5348,19.3571,-99.2868,PAGO DE VOLADA,PARRILLA LA CABRERA DE MTY,DEPARTAMENTO 1,264
01/08/24,453-685-833,CIUDAD DE MÉXICO,5814,#REF!,CIUDAD DE MEXICO,5348,19.3571,-99.2868,PARRILLA LA CABRERA,PARRILLA LA CABRERA DE MTY,DEPARTAMENTO 2,312
01/08/24,390-213-586,CIUDAD DE MÉXICO,5814,#REF!,CIUDAD DE MEXICO,5348,19.3571,-99.2868,PARRILLA LA CABRERA,GRUPO SANTINO,SPEAK EASY,2
01/08/24,452-709-474,CIUDAD DE MÉXICO,5814,#REF!,CIUDAD DE MEXICO,5348,19.3571,-99.2868,CQP,LA PIZZINE,LA PIZZINE VELETA,38
01/08/24,452-709-401,CIUDAD DE MÉXICO,5814,#REF!,CIUDAD DE MEXICO,5348,19.3571,-99.2868,PARRILLA LA CABRERA,PARRILLA LA CABRERA DE MTY,TONAL 1,15
01/08/24,450-138-897,CIUDAD DE MÉXICO,5814,#REF!,CIUDAD DE MEXICO,5348,19.3571,-99.2868,PAGO DE VOLADA,PARRILLA LA CABRERA DE MTY,TONAL 1,37
01/08/24,451-795-535,CIUDAD DE MÉXICO,5814,#REF!,CIUDAD DE MEXICO,5348,19.3571,-99.2868,PARRILLA LA CABRERA,LA PIZZINE,LA PIZZINE VELETA,87
01/08/24,452-709-416,CIUDAD DE MÉXICO,5814,#REF!,CIUDAD DE MEXICO,5348,19.3571,-99.2868,PAGO DE VOLADA,PARRILLA LA CABRERA DE MTY,DEPARTAMENTO 2,427
01/08/24,453-684-451,CIUDAD DE MÉXICO,5814,#REF!,CIUDAD DE MEXICO,5348,19.3571,-99.2868,CQP,PARRILLA LA CABRERA DE MTY,TONAL 1,295
01/08/24,453-685-869,CIUDAD DE MÉXICO,5814,#REF!,CIUDAD DE MEXICO,5348,19.3571,-99.2868,CQP,PARRILLA LA CABRERA DE MTY,TONAL 1,365
01/08/24,452-709-457,CIUDAD DE MÉXICO,5814,#REF!,CIUDAD DE MEXICO,5348,19.3571,-99.2868,PAGO DE VOLADA,PARRILLA LA CABRERA DE MTY,DEPARTAMENTO 2,159
01/08/24,453-685-931,CIUDAD DE MÉXICO,5814,#REF!,CIUDAD DE MEXICO,5348,19.3571,-99.2868,PAGO DE VOLADA,PARRILLA LA CABRERA DE MTY,DEPARTAMENTO 1,162
01/08/24,9.83E+13,CIUDAD DE MÉXICO,5814,#REF!,CIUDAD DE MEXICO,5348,19.3571,-99.2868,PARRILLA LA CABRERA,PARRILLA LA CABRERA DE MTY,COMERCIALIZADORA L3P,3
01/08/24,9.83E+13,CIUDAD DE MÉXICO,5814,#REF!,CIUDAD DE MEXICO,5348,19.3571,-99.2868,PARRILLA LA CABRERA,PARRILLA LA CABRERA DE MTY,REPUBLICA CHIHUAHUA,145
01/08/24,452-969-138,CIUDAD DE MÉXICO,5814,#REF!,CIUDAD DE MEXICO,5348,19.3571,-99.2868,PARRILLA LA CABRERA,PARRILLA LA CABRERA DE MTY,TONAL 1,34
01/08/24,390-160-530,CIUDAD DE MÉXICO,5814,#REF!,CIUDAD DE MEXICO,5348,19.3571,-99.2868,PARRILLA LA CABRERA,GRUPO SANTINO,ROOF SHOTS,2
01/08/24,453-685-853,CIUDAD DE MÉXICO,5814,#REF!,CIUDAD DE MEXICO,5348,19.3571,-99.2868,PAGO DE VOLADA,PARRILLA LA CABRERA DE MTY,DEPARTAMENTO 1,232
01/08/24,451-795-535,CIUDAD DE MÉXICO,5814,#REF!,CIUDAD DE MEXICO,5348,19.3571,-99.2868,CQP,LA PIZZINE,LA PIZZINE VELETA,19
01/08/24,450-108-831,CIUDAD DE MÉXICO,5814,#REF!,CIUDAD DE MEXICO,5348,19.3571,-99.2868,PAGO DE VOLADA,PARRILLA LA CABRERA DE MTY,TONAL 1,116
01/08/24,9.83E+13,CIUDAD DE MÉXICO,5814,#REF!,CIUDAD DE MEXICO,5348,19.3571,-99.2868,PARRILLA LA CABRERA,PARRILLA LA CABRERA DE MTY,BBT MID,42
01/08/24,453-685-931,CIUDAD DE MÉXICO,5814,#REF!,CIUDAD DE MEXICO,5348,19.3571,-99.2868,PARRILLA LA CABRERA,PARRILLA LA CABRERA DE MTY,DEPARTAMENTO 1,544
01/08/24,9.83E+13,CIUDAD DE MÉXICO,5814,#REF!,CIUDAD DE MEXICO,5348,19.3571,-99.2868,PAGO DE VOLADA,PARRILLA LA CABRERA DE MTY,BBT MID,25
01/08/24,453-685-282,CIUDAD DE MÉXICO,5814,#REF!,CIUDAD DE MEXICO,5348,19.3571,-99.2868,PAGO DE VOLADA,PARRILLA LA CABRERA DE MTY,DEPARTAMENTO 1,185
01/08/24,452-857-091,CIUDAD DE MÉXICO,5814,#REF!,CIUDAD DE MEXICO,5348,19.3571,-99.2868,PAGO DE VOLADA,PARRILLA LA CABRERA DE MTY,DEPARTAMENTO 2,401
01/08/24,453-685-881,CIUDAD DE MÉXICO,5814,#REF!,CIUDAD DE MEXICO,5348,19.3571,-99.2868,PAGO DE VOLADA,PARRILLA LA CABRERA DE MTY,DEPARTAMENTO 1,474
01/08/24,453-686-464,CIUDAD DE MÉXICO,5814,#REF!,CIUDAD DE MEXICO,5348,19.3571,-99.2868,CQP,PARRILLA LA CABRERA DE MTY,TONAL 1,130
01/08/24,453-685-877,CIUDAD DE MÉXICO,5814,#REF!,CIUDAD DE MEXICO,5348,19.3571,-99.2868,PARRILLA LA CABRERA,PARRILLA LA CABRERA DE MTY,TONAL 1,26
01/08/24,9.83E+13,CIUDAD DE MÉXICO,5814,#REF!,CIUDAD DE MEXICO,5348,19.3571,-99.2868,CQP,PARRILLA LA CABRERA DE MTY,COMERCIALIZADORA L3P,3
01/08/24,450-103-351,CIUDAD DE MÉXICO,5814,#REF!,CIUDAD DE MEXICO,5348,19.3571,-99.2868,PARRILLA LA CABRERA,PARRILLA LA CABRERA DE MTY,TONAL 1,69
01/08/24,453-686-143,CIUDAD DE MÉXICO,5814,#REF!,CIUDAD DE MEXICO,5348,19.3571,-99.2868,PARRILLA LA CABRERA,PARRILLA LA CABRERA DE MTY,DEPARTAMENTO 2,114
01/08/24,9.83E+13,CIUDAD DE MÉXICO,5814,#REF!,CIUDAD DE MEXICO,5348,19.3571,-99.2868,PARRILLA LA CABRERA,PARRILLA LA CABRERA DE MTY,REPUBLICA CHIHUAHUA,209
01/08/24,453-686-143,CIUDAD DE MÉXICO,5814,#REF!,CIUDAD DE MEXICO,5348,19.3571,-99.2868,PAGO DE VOLADA,PARRILLA LA CABRERA DE MTY,DEPARTAMENTO 2,122
01/08/24,452-709-457,CIUDAD DE MÉXICO,5814,#REF!,CIUDAD DE MEXICO,5348,19.3571,-99.2868,PARRILLA LA CABRERA,PARRILLA LA CABRERA DE MTY,DEPARTAMENTO 2,360
01/08/24,452-709-423,CIUDAD DE MÉXICO,5814,#REF!,CIUDAD DE MEXICO,5348,19.3571,-99.2868,PAGO DE VOLADA,PARRILLA LA CABRERA DE MTY,DEPARTAMENTO 2,428
01/08/24,452-709-416,CIUDAD DE MÉXICO,5814,#REF!,CIUDAD DE MEXICO,5348,19.3571,-99.2868,PARRILLA LA CABRERA,PARRILLA LA CABRERA DE MTY,DEPARTAMENTO 2,565
01/08/24,346-047-877,CIUDAD DE MÉXICO,5814,#REF!,CIUDAD DE MEXICO,6140,19.4121,-99.1795,PAGO FACIL,FONDA GARUFA,-,13
01/08/24,451-705-654,CIUDAD DE MÉXICO,5814,#REF!,CIUDAD DE MEXICO,6140,19.4121,-99.1795,PAGO FACIL,FONDA GARUFA,-,31
01/08/24,453-793-249,CIUDAD DE MÉXICO,5814,#REF!,CIUDAD DE MEXICO,11570,19.4408,-99.109,ANDROS GONZALEZ,GPO KOMEN,BURGER K MITIKAH,378
01/08/24,453-793-237,CIUDAD DE MÉXICO,5814,#REF!,CIUDAD DE MEXICO,11570,19.4408,-99.109,ANDROS GONZALEZ,GPO KOMEN,BURGER K TIZARA,124
01/08/24,453-793-242,CIUDAD DE MÉXICO,5814,#REF!,CIUDAD DE MEXICO,11570,19.4408,-99.109,BLUMONPAY AGREGADOR,GPO KOMEN,BURGER K ANTENAS,2
01/08/24,453-793-242,CIUDAD DE MÉXICO,5814,#REF!,CIUDAD DE MEXICO,11570,19.4408,-99.109,ANDROS GONZALEZ,GPO KOMEN,BURGER K ANTENAS,208
01/08/24,453-793-229,CIUDAD DE MÉXICO,5814,#REF!,CIUDAD DE MEXICO,11570,19.4408,-99.109,ANDROS GONZALEZ,GPO KOMEN,BURGER K ANTENAS,197
01/08/24,453-793-321,CIUDAD DE MÉXICO,5814,#REF!,CIUDAD DE MEXICO,11570,19.4408,-99.109,ANDROS GONZALEZ,GPO KOMEN,BURGER K MITIKAH,523
01/08/24,453-793-249,CIUDAD DE MÉXICO,5814,#REF!,CIUDAD DE MEXICO,11570,19.4408,-99.109,BLUMONPAY AGREGADOR,GPO KOMEN,BURGER K MITIKAH,2
01/08/24,453-793-366,CIUDAD DE MÉXICO,5814,#REF!,CIUDAD DE MEXICO,11570,19.4408,-99.109,ANDROS GONZALEZ,GPO KOMEN,BURGER K TIZARA,87
01/08/24,452-709-291,CIUDAD DE MÉXICO,5814,#REF!,CIUDAD DE MEXICO,11850,19.4043,-99.1928,PAGO DE VOLADA,PADEL ZONE PINOS,-,131
01/08/24,9.83E+13,HIDALGO,5814,#REF!,MINERAL DE LA REFORMA,42185,20.0629,-98.7602,TERMINAL TOTAL,CM MORELOS CENTRO,-,38
01/08/24,9.83E+13,HIDALGO,5814,#REF!,MINERAL DE LA REFORMA,42185,20.0629,-98.7602,TERMINAL TOTAL,TERRAZA DEL MAR,-,2
01/08/24,9.83E+13,HIDALGO,5814,#REF!,MINERAL DE LA REFORMA,42185,20.0629,-98.7602,TERMINAL TOTAL,BONETTA,-,240
01/08/24,9.83E+13,HIDALGO,5814,#REF!,MINERAL DE LA REFORMA,42185,20.0629,-98.7602,TERMINAL TOTAL,CM MORELOS CENTRO,-,5
01/08/24,9.83E+13,HIDALGO,5814,#REF!,MINERAL DE LA REFORMA,42185,20.0629,-98.7602,TERMINAL TOTAL,BONETTA,-,201
01/08/24,9.83E+13,HIDALGO,5814,#REF!,MINERAL DE LA REFORMA,42185,20.0629,-98.7602,TERMINAL TOTAL,SUGOICOP,-,7
01/08/24,450-111-310,HIDALGO,5814,#REF!,TULA DE ALLENDE,42815,20.0441,-99.4109,TERMINAL TOTAL,MIA,-,25
01/08/24,450-202-985,HIDALGO,5814,#REF!,TULA DE ALLENDE,42815,20.0441,-99.4109,TERMINAL TOTAL,MIA,-,24
01/08/24,9.83E+13,ESTADO DE MÉXICO,5814,#REF!,NAUCALPAN DE JUAREZ,53117,19.5113,-99.2535,TERMINAL TOTAL,THE PADEL BAR,-,62
01/08/24,450-103-791,ESTADO DE MÉXICO,5814,#REF!,ECATEPEC DE MORELOS,55050,19.5729,-99.0433,TERMINAL TOTAL,MARISQUERIA Y GRIEGA,-,15
01/08/24,452-709-410,ESTADO DE MÉXICO,5814,#REF!,ECATEPEC DE MORELOS,55050,19.5729,-99.0433,TERMINAL TOTAL,MARISQUERIA Y GRIEGA,-,69
01/08/24,9.83E+13,OAXACA,5814,#REF!,SANTA MARIA COLOTEPEC,70934,15.8689,-97.0564,CQP,CASA LEAH PUERTO,-,4
01/08/24,9.83E+13,OAXACA,5814,#REF!,SANTA MARIA COLOTEPEC,70934,15.8689,-97.0564,PARRILLA LA CABRERA,CASA LEAH PUERTO,-,2
01/08/24,452-709-470,QUERETARO,5814,#REF!,QUERETARO,76160,20.7864,-100.4889,PAGO DE VOLADA,LA TIENDITA,-,572
01/08/24,453-793-140,QUINTANA ROO,5814,#REF!,SOLIDARIDAD,77710,20.6296,-87.079,CQP,GRUPO CHE,CHE HOSTEL,34
01/08/24,453-793-218,QUINTANA ROO,5814,#REF!,SOLIDARIDAD,77710,20.6296,-87.079,CQP,GRUPO CHE,CHE PLAYA,50
01/08/24,453-793-239,QUINTANA ROO,5814,#REF!,SOLIDARIDAD,77710,20.6296,-87.079,CQP,GRUPO CHE,CHE SUITES PLAYA,4
01/08/24,806-766-474,CIUDAD DE MÉXICO,5999,#REF!,TULUM,77760,19.9203,-87.4782,GLOBAL PAYMENTS TECHNOLOGY MEXICO,FRUTERIAS WELTON,FRUTERIA WELTON 2,1354
01/08/24,452-709-507,CIUDAD DE MÉXICO,7011,#REF!,CIUDAD DE MEXICO,14739,19.2616,-99.2375,PAGO FACIL,CAMINOS DEL SUR ADMINISTRADORA,-,16
01/08/24,451-795-498,CIUDAD DE MÉXICO,7011,#REF!,CIUDAD DE MEXICO,14739,19.2616,-99.2375,PAGO FACIL,CAMINOS DEL SUR ADMINISTRADORA,-,27
01/08/24,451-705-314,CIUDAD DE MÉXICO,7011,#REF!,CIUDAD DE MEXICO,14739,19.2616,-99.2375,PAGO FACIL,CAMINOS DEL SUR ADMINISTRADORA,-,7
01/08/24,450-110-354,YUCATAN,7276,#REF!,MERIDA,97129,20.9598,-89.596,PAGO DE VOLADA,LITUS FISCAL SA DE CV,DOCTOR 1,48
01/08/24,452-857-107,QUINTANA ROO,7298,#REF!,TULUM,77760,19.9203,-87.4782,BLUMONPAY AGREGADOR,ECO CHIC WELLNESS,-,1
01/08/24,805-616-839,ESTADO DE MÉXICO,7299,#REF!,TOLUCA,50000,19.297,-99.6664,BANCA MIFEL,PLAZA DE LA TECNOLOGIA,PT LOS REYES,13
01/08/24,275-487-000,ESTADO DE MÉXICO,7299,#REF!,TOLUCA,50000,19.297,-99.6664,BANCA MIFEL,PLAZA DE LA TECNOLOGIA,PT CANCUN,4
01/08/24,805-616-867,ESTADO DE MÉXICO,7299,#REF!,TOLUCA,50000,19.297,-99.6664,BANCA MIFEL,PLAZA DE LA TECNOLOGIA,PLAZA LEON,13
01/08/24,805-616-869,ESTADO DE MÉXICO,7299,#REF!,TOLUCA,50000,19.297,-99.6664,BANCA MIFEL,PLAZA DE LA TECNOLOGIA,PLAZA MERIDA ,2
01/08/24,275-487-014,ESTADO DE MÉXICO,7299,#REF!,TOLUCA,50000,19.297,-99.6664,BANCA MIFEL,PLAZA DE LA TECNOLOGIA,PT COACALCO ,3
01/08/24,805-616-860,ESTADO DE MÉXICO,7299,#REF!,TOLUCA,50000,19.297,-99.6664,BANCA MIFEL,PLAZA DE LA TECNOLOGIA,PLAZA CHIHUAHUA,20
01/08/24,275-487-130,ESTADO DE MÉXICO,7299,#REF!,TOLUCA,50000,19.297,-99.6664,BANCA MIFEL,PLAZA DE LA TECNOLOGIA,PLAZA DE LA TEC GUADAL,71
01/08/24,346-921-060,ESTADO DE MÉXICO,7299,#REF!,TOLUCA,50000,19.297,-99.6664,BANCA MIFEL,PLAZA DE LA TECNOLOGIA,PLAZA MICHOACAN,1
01/08/24,275-487-082,ESTADO DE MÉXICO,7299,#REF!,TOLUCA,50000,19.297,-99.6664,BANCA MIFEL,PLAZA DE LA TECNOLOGIA,BAZAR DE COMPUTACIÃ“N,53
01/08/24,803-764-000,ESTADO DE MÉXICO,7299,#REF!,TOLUCA,50000,19.297,-99.6664,BANCA MIFEL,PLAZA DE LA TECNOLOGIA,PLAZA LEON,7
01/08/24,275-486-847,ESTADO DE MÉXICO,7299,#REF!,TOLUCA,50000,19.297,-99.6664,BANCA MIFEL,PLAZA DE LA TECNOLOGIA,PT ACAPULCO 2,4
01/08/24,275-487-081,ESTADO DE MÉXICO,7299,#REF!,TOLUCA,50000,19.297,-99.6664,BANCA MIFEL,PLAZA DE LA TECNOLOGIA,PT LOS REYES,6
01/08/24,803-764-002,ESTADO DE MÉXICO,7299,#REF!,TOLUCA,50000,19.297,-99.6664,BANCA MIFEL,PLAZA DE LA TECNOLOGIA,TECNOLOGIA Y FASHION TORREON,26
01/08/24,803-764-131,ESTADO DE MÉXICO,7299,#REF!,TOLUCA,50000,19.297,-99.6664,BANCA MIFEL,PLAZA DE LA TECNOLOGIA,PT TAPACHULA,2
01/08/24,275-487-071,ESTADO DE MÉXICO,7299,#REF!,TOLUCA,50000,19.297,-99.6664,BANCA MIFEL,PLAZA DE LA TECNOLOGIA,TECNOLOGIA Y FASHION TORREON,7
01/08/24,275-487-055,ESTADO DE MÉXICO,7299,#REF!,TOLUCA,50000,19.297,-99.6664,BANCA MIFEL,PLAZA DE LA TECNOLOGIA,PLAZA TECNOLOGIA III,21
01/08/24,805-616-937,ESTADO DE MÉXICO,7299,#REF!,TOLUCA,50000,19.297,-99.6664,BANCA MIFEL,PLAZA DE LA TECNOLOGIA,PZA TECNOLOGIA MAYOREO,27
01/08/24,803-763-860,ESTADO DE MÉXICO,7299,#REF!,TOLUCA,50000,19.297,-99.6664,BANCA MIFEL,PLAZA DE LA TECNOLOGIA,CENTRO JOYERO FUNDADOR,17
01/08/24,805-616-912,ESTADO DE MÉXICO,7299,#REF!,TOLUCA,50000,19.297,-99.6664,BANCA MIFEL,PLAZA DE LA TECNOLOGIA,PT VERACRUZ,16
01/08/24,805-616-731,ESTADO DE MÉXICO,7299,#REF!,TOLUCA,50000,19.297,-99.6664,BANCA MIFEL,PLAZA DE LA TECNOLOGIA,PLAZA LEON,45
01/08/24,803-764-073,ESTADO DE MÉXICO,7299,#REF!,TOLUCA,50000,19.297,-99.6664,BANCA MIFEL,PLAZA DE LA TECNOLOGIA,PZA TECNOLOGIA MAYOREO,44
01/08/24,275-486-855,ESTADO DE MÉXICO,7299,#REF!,TOLUCA,50000,19.297,-99.6664,BANCA MIFEL,PLAZA DE LA TECNOLOGIA,PT VERACRUZ,8
01/08/24,275-487-131,ESTADO DE MÉXICO,7299,#REF!,TOLUCA,50000,19.297,-99.6664,BANCA MIFEL,PLAZA DE LA TECNOLOGIA,PT ACAPULCO,8
01/08/24,275-486-849,ESTADO DE MÉXICO,7299,#REF!,TOLUCA,50000,19.297,-99.6664,BANCA MIFEL,PLAZA DE LA TECNOLOGIA,PERICENTRO,58
01/08/24,275-487-084,ESTADO DE MÉXICO,7299,#REF!,TOLUCA,50000,19.297,-99.6664,BANCA MIFEL,PLAZA DE LA TECNOLOGIA,PLAZA TUXTLA GUTIERREZ,7
01/08/24,275-487-129,ESTADO DE MÉXICO,7299,#REF!,TOLUCA,50000,19.297,-99.6664,BANCA MIFEL,PLAZA DE LA TECNOLOGIA,PT ACAPULCO,13
01/08/24,275-487-065,ESTADO DE MÉXICO,7299,#REF!,TOLUCA,50000,19.297,-99.6664,BANCA MIFEL,PLAZA DE LA TECNOLOGIA,PLAZA MICHOACAN,44
01/08/24,805-616-963,ESTADO DE MÉXICO,7299,#REF!,TOLUCA,50000,19.297,-99.6664,BANCA MIFEL,PLAZA DE LA TECNOLOGIA,PLAZA DE TECNOLOGIA CR,36
01/08/24,346-921-055,ESTADO DE MÉXICO,7299,#REF!,TOLUCA,50000,19.297,-99.6664,BANCA MIFEL,PLAZA DE LA TECNOLOGIA,PT COACALCO ,3
01/08/24,805-616-924,ESTADO DE MÉXICO,7299,#REF!,TOLUCA,50000,19.297,-99.6664,BANCA MIFEL,PLAZA DE LA TECNOLOGIA,PLAZA TECNOLOGIA III,10
01/08/24,805-616-959,ESTADO DE MÉXICO,7299,#REF!,TOLUCA,50000,19.297,-99.6664,BANCA MIFEL,PLAZA DE LA TECNOLOGIA,CENTRO JOYERO CULIACAN,16
01/08/24,275-487-076,ESTADO DE MÉXICO,7299,#REF!,TOLUCA,50000,19.297,-99.6664,BANCA MIFEL,PLAZA DE LA TECNOLOGIA,PT- PM TIJUANA,36
01/08/24,346-921-030,ESTADO DE MÉXICO,7299,#REF!,TOLUCA,50000,19.297,-99.6664,BANCA MIFEL,PLAZA DE LA TECNOLOGIA,PZA TECNOLOGIA MAYOREO,7
01/08/24,803-605-931,ESTADO DE MÉXICO,7299,#REF!,TOLUCA,50000,19.297,-99.6664,BANCA MIFEL,PLAZA DE LA TECNOLOGIA,PLAZA PUEBLA,40
01/08/24,275-487-079,ESTADO DE MÉXICO,7299,#REF!,TOLUCA,50000,19.297,-99.6664,BANCA MIFEL,PLAZA DE LA TECNOLOGIA,PT TAMPICO ,18
01/08/24,275-486-995,ESTADO DE MÉXICO,7299,#REF!,TOLUCA,50000,19.297,-99.6664,BANCA MIFEL,PLAZA DE LA TECNOLOGIA,PLAZA AGUASCALIENT II,65
01/08/24,275-487-125,ESTADO DE MÉXICO,7299,#REF!,TOLUCA,50000,19.297,-99.6664,BANCA MIFEL,PLAZA DE LA TECNOLOGIA,PLAZA CHIHUAHUA,2
01/08/24,805-616-837,ESTADO DE MÉXICO,7299,#REF!,TOLUCA,50000,19.297,-99.6664,BANCA MIFEL,PLAZA DE LA TECNOLOGIA,PLAZA AGUASCALIENT II,2
01/08/24,805-616-879,ESTADO DE MÉXICO,7299,#REF!,TOLUCA,50000,19.297,-99.6664,BANCA MIFEL,PLAZA DE LA TECNOLOGIA,PT ACAPULCO,7
01/08/24,346-921-031,ESTADO DE MÉXICO,7299,#REF!,TOLUCA,50000,19.297,-99.6664,BANCA MIFEL,PLAZA DE LA TECNOLOGIA,PLAZA TECNOLOGIA III,3
01/08/24,275-487-066,ESTADO DE MÉXICO,7299,#REF!,TOLUCA,50000,19.297,-99.6664,BANCA MIFEL,PLAZA DE LA TECNOLOGIA,PLAZA MICHOACAN,1
01/08/24,275-487-132,ESTADO DE MÉXICO,7299,#REF!,TOLUCA,50000,19.297,-99.6664,BANCA MIFEL,PLAZA DE LA TECNOLOGIA,PLAZA MORELOS,21
01/08/24,275-486-998,ESTADO DE MÉXICO,7299,#REF!,TOLUCA,50000,19.297,-99.6664,BANCA MIFEL,PLAZA DE LA TECNOLOGIA,PT CANCUN,24
01/08/24,275-487-088,ESTADO DE MÉXICO,7299,#REF!,TOLUCA,50000,19.297,-99.6664,BANCA MIFEL,PLAZA DE LA TECNOLOGIA,CENTRO JOYERO CULIACAN,2
01/08/24,803-764-036,ESTADO DE MÉXICO,7299,#REF!,TOLUCA,50000,19.297,-99.6664,BANCA MIFEL,PLAZA DE LA TECNOLOGIA,PLAZA PUEBLA,2
01/08/24,275-487-134,ESTADO DE MÉXICO,7299,#REF!,TOLUCA,50000,19.297,-99.6664,BANCA MIFEL,PLAZA DE LA TECNOLOGIA,PLAZA COLON,94
01/08/24,805-616-910,ESTADO DE MÉXICO,7299,#REF!,TOLUCA,50000,19.297,-99.6664,BANCA MIFEL,PLAZA DE LA TECNOLOGIA,PLAZA TUXTLA GUTIERREZ,6
01/08/24,275-486-858,ESTADO DE MÉXICO,7299,#REF!,TOLUCA,50000,19.297,-99.6664,BANCA MIFEL,PLAZA DE LA TECNOLOGIA,PZA TECNOLOGIA TOLUCA,9
01/08/24,275-094-182,ESTADO DE MÉXICO,7299,#REF!,TOLUCA,50000,19.297,-99.6664,BANCA MIFEL,PLAZA DE LA TECNOLOGIA,CENTRO JOYERO TOLUCA,13
01/08/24,805-616-882,ESTADO DE MÉXICO,7299,#REF!,TOLUCA,50000,19.297,-99.6664,BANCA MIFEL,PLAZA DE LA TECNOLOGIA,PT TAMPICO ,33
01/08/24,275-486-851,ESTADO DE MÉXICO,7299,#REF!,TOLUCA,50000,19.297,-99.6664,BANCA MIFEL,PLAZA DE LA TECNOLOGIA,PT COACALCO ,19
01/08/24,275-486-856,ESTADO DE MÉXICO,7299,#REF!,TOLUCA,50000,19.297,-99.6664,BANCA MIFEL,PLAZA DE LA TECNOLOGIA,CENTRO JOYERO VILLA HERMOSA,4
01/08/24,805-616-904,ESTADO DE MÉXICO,7299,#REF!,TOLUCA,50000,19.297,-99.6664,BANCA MIFEL,PLAZA DE LA TECNOLOGIA,CENTRO JOYERO FUNDADOR,8
01/08/24,346-921-070,ESTADO DE MÉXICO,7299,#REF!,TOLUCA,50000,19.297,-99.6664,BANCA MIFEL,PLAZA DE LA TECNOLOGIA,PLAZA MORELOS,1
01/08/24,346-921-051,ESTADO DE MÉXICO,7299,#REF!,TOLUCA,50000,19.297,-99.6664,BANCA MIFEL,PLAZA DE LA TECNOLOGIA,PLAZA CHIHUAHUA,14
01/08/24,805-616-894,ESTADO DE MÉXICO,7299,#REF!,TOLUCA,50000,19.297,-99.6664,BANCA MIFEL,PLAZA DE LA TECNOLOGIA,PLAZA PUEBLA,16
01/08/24,346-921-033,ESTADO DE MÉXICO,7299,#REF!,TOLUCA,50000,19.297,-99.6664,BANCA MIFEL,PLAZA DE LA TECNOLOGIA,PZA TECNOLOGIA TOLUCA,6
01/08/24,275-487-094,ESTADO DE MÉXICO,7299,#REF!,TOLUCA,50000,19.297,-99.6664,BANCA MIFEL,PLAZA DE LA TECNOLOGIA,PLAZA MERIDA ,4
01/08/24,805-616-968,ESTADO DE MÉXICO,7299,#REF!,TOLUCA,50000,19.297,-99.6664,BANCA MIFEL,PLAZA DE LA TECNOLOGIA,PT TAPACHULA,2
01/08/24,805-616-870,ESTADO DE MÉXICO,7299,#REF!,TOLUCA,50000,19.297,-99.6664,BANCA MIFEL,PLAZA DE LA TECNOLOGIA,PLAZA MONTERREY II,38
01/08/24,805-616-909,ESTADO DE MÉXICO,7299,#REF!,TOLUCA,50000,19.297,-99.6664,BANCA MIFEL,PLAZA DE LA TECNOLOGIA,PT- PM TIJUANA,48
01/08/24,346-921-071,ESTADO DE MÉXICO,7299,#REF!,TOLUCA,50000,19.297,-99.6664,BANCA MIFEL,PLAZA DE LA TECNOLOGIA,PT CANCUN,10
01/08/24,346-921-034,ESTADO DE MÉXICO,7299,#REF!,TOLUCA,50000,19.297,-99.6664,BANCA MIFEL,PLAZA DE LA TECNOLOGIA,PT LOS REYES,3
01/08/24,346-921-081,ESTADO DE MÉXICO,7299,#REF!,TOLUCA,50000,19.297,-99.6664,BANCA MIFEL,PLAZA DE LA TECNOLOGIA,PLAZA MORELOS,7
01/08/24,805-616-951,ESTADO DE MÉXICO,7299,#REF!,TOLUCA,50000,19.297,-99.6664,BANCA MIFEL,PLAZA DE LA TECNOLOGIA,PZA TECNOLOGIA TOLUCA,49
01/08/24,805-616-987,ESTADO DE MÉXICO,7299,#REF!,TOLUCA,50000,19.297,-99.6664,BANCA MIFEL,PLAZA DE LA TECNOLOGIA,PT CANCUN,33
01/08/24,805-616-915,ESTADO DE MÉXICO,7299,#REF!,TOLUCA,50000,19.297,-99.6664,BANCA MIFEL,PLAZA DE LA TECNOLOGIA,CENTRO JOYERO VILLA HERMOSA,23
01/08/24,275-486-854,ESTADO DE MÉXICO,7299,#REF!,TOLUCA,50000,19.297,-99.6664,BANCA MIFEL,PLAZA DE LA TECNOLOGIA,PLAZA QUERETARO II,65
01/08/24,275-487-056,ESTADO DE MÉXICO,7299,#REF!,TOLUCA,50000,19.297,-99.6664,BANCA MIFEL,PLAZA DE LA TECNOLOGIA, PT URUGUAY 17,2
01/08/24,450-535-278,ESTADO DE MÉXICO,7299,#REF!,TOLUCA,50000,19.297,-99.6664,BANCA MIFEL,PLAZA DE LA TECNOLOGIA,PLAZA LEON,4
01/08/24,805-616-966,ESTADO DE MÉXICO,7299,#REF!,TOLUCA,50000,19.297,-99.6664,BANCA MIFEL,PLAZA DE LA TECNOLOGIA,CENTRO JOYERO VILLA HERMOSA,2
01/08/24,805-616-843,ESTADO DE MÉXICO,7299,#REF!,TOLUCA,50000,19.297,-99.6664,BANCA MIFEL,PLAZA DE LA TECNOLOGIA,PLAZA MORELOS,2
01/08/24,275-487-123,ESTADO DE MÉXICO,7299,#REF!,TOLUCA,50000,19.297,-99.6664,BANCA MIFEL,PLAZA DE LA TECNOLOGIA,PLAZA MERIDA ,14
01/08/24,805-616-876,ESTADO DE MÉXICO,7299,#REF!,TOLUCA,50000,19.297,-99.6664,BANCA MIFEL,PLAZA DE LA TECNOLOGIA,BAZAR DE COMPUTACIÃ“N,4
01/08/24,275-487-095,ESTADO DE MÉXICO,7299,#REF!,TOLUCA,50000,19.297,-99.6664,BANCA MIFEL,PLAZA DE LA TECNOLOGIA,PLAZA MONTERREY II,39
01/08/24,346-921-035,ESTADO DE MÉXICO,7299,#REF!,TOLUCA,50000,19.297,-99.6664,BANCA MIFEL,PLAZA DE LA TECNOLOGIA,PLAZA NICOLAS ROMERO,11
01/08/24,275-487-075,ESTADO DE MÉXICO,7299,#REF!,TOLUCA,50000,19.297,-99.6664,BANCA MIFEL,PLAZA DE LA TECNOLOGIA,BAZAR DE COMPUTACIÃ“N,2
01/08/24,275-487-011,ESTADO DE MÉXICO,7299,#REF!,TOLUCA,50000,19.297,-99.6664,BANCA MIFEL,PLAZA DE LA TECNOLOGIA,PLAZA NICOLAS ROMERO,16
01/08/24,275-451-577,ESTADO DE MÉXICO,7299,#REF!,TOLUCA,50000,19.297,-99.6664,BANCA MIFEL,PLAZA DE LA TECNOLOGIA,CENTRO JOYERO CULIACAN,42
01/08/24,275-486-852,ESTADO DE MÉXICO,7299,#REF!,TOLUCA,50000,19.297,-99.6664,BANCA MIFEL,PLAZA DE LA TECNOLOGIA,PLAZA DE TECNOLOGIA CR,2
01/08/24,275-487-078,ESTADO DE MÉXICO,7299,#REF!,TOLUCA,50000,19.297,-99.6664,BANCA MIFEL,PLAZA DE LA TECNOLOGIA,PT TAMPICO ,2
01/08/24,805-616-946,ESTADO DE MÉXICO,7299,#REF!,TOLUCA,50000,19.297,-99.6664,BANCA MIFEL,PLAZA DE LA TECNOLOGIA,PLAZA MORELOS,2
01/08/24,805-616-897,ESTADO DE MÉXICO,7299,#REF!,TOLUCA,50000,19.297,-99.6664,BANCA MIFEL,PLAZA DE LA TECNOLOGIA,PT LOS REYES,15
01/08/24,275-487-096,ESTADO DE MÉXICO,7299,#REF!,TOLUCA,50000,19.297,-99.6664,BANCA MIFEL,PLAZA DE LA TECNOLOGIA,PLAZA DE TECNOLOGIA CR,29
01/08/24,346-921-061,ESTADO DE MÉXICO,7299,#REF!,TOLUCA,50000,19.297,-99.6664,BANCA MIFEL,PLAZA DE LA TECNOLOGIA,PT ACAPULCO,2
01/08/24,453-685-729,AGUASCALIENTES,7311,#REF!,AGUASCALIENTES,20000,21.8734,-102.2806,PAGO DE VOLADA,DESIGN UN INTEGRATION VON MEXI,-,645
01/08/24,453-687-019,AGUASCALIENTES,7311,#REF!,AGUASCALIENTES,20000,21.8734,-102.2806,PAGO DE VOLADA,DESIGN UN INTEGRATION VON MEXI,-,75
01/08/24,453-686-976,AGUASCALIENTES,7311,#REF!,AGUASCALIENTES,20000,21.8734,-102.2806,PAGO DE VOLADA,DESIGN UN INTEGRATION VON MEXI,-,650
01/08/24,9.83E+13,AGUASCALIENTES,7311,#REF!,AGUASCALIENTES,20278,21.8956,-102.2705,PAGO DE VOLADA,MERCALOGISTIC,-,72
01/08/24,9.83E+13,AGUASCALIENTES,7311,#REF!,AGUASCALIENTES,20278,21.8956,-102.2705,PAGO DE VOLADA,MERCALOGISTIC,-,17
01/08/24,452-969-232,CIUDAD DE MÉXICO,7399,#REF!,CIUDAD DE MEXICO,1020,19.5161,-99.1419,BPAY CREDITO SUSTENTABLE,ZTU,-,6
01/08/24,451-795-536,CIUDAD DE MÉXICO,7399,#REF!,CIUDAD DE MEXICO,1710,19.3479,-99.2232,BPAY CREDITO SUSTENTABLE,DCS,-,2
01/08/24,346-807-542,CIUDAD DE MÉXICO,7538,#REF!,CIUDAD DE MEXICO,1340,19.3691,-99.2581,WELL TALK,BMECANICA,-,5
01/08/24,451-705-650,CIUDAD DE MÉXICO,7995,#REF!,CIUDAD DE MEXICO,5120,19.3789,-99.2659,PAGO DE VOLADA,ORUS CASINO,SALA MANZANILLO,235
01/08/24,451-705-656,CIUDAD DE MÉXICO,7995,#REF!,CIUDAD DE MEXICO,5120,19.3789,-99.2659,PAGO DE VOLADA,ORUS CASINO,SALA COLIMA,222
01/08/24,452-857-098,CIUDAD DE MÉXICO,7995,#REF!,CIUDAD DE MEXICO,5120,19.3789,-99.2659,BLUMONPAY AGREGADOR,ORUS CASINO,SALA MANZANILLO,731
01/08/24,453-793-454,CIUDAD DE MÉXICO,7995,#REF!,CIUDAD DE MEXICO,5120,19.3789,-99.2659,BLUMONPAY AGREGADOR,ORUS CASINO,SALA ZAMORA,188
01/08/24,453-793-289,CIUDAD DE MÉXICO,7995,#REF!,CIUDAD DE MEXICO,5120,19.3789,-99.2659,BLUMONPAY AGREGADOR,ORUS CASINO,SALA ZAMORA,144
01/08/24,452-857-098,CIUDAD DE MÉXICO,7995,#REF!,CIUDAD DE MEXICO,5120,19.3789,-99.2659,PAGO DE VOLADA,ORUS CASINO,SALA MANZANILLO,461
01/08/24,451-705-656,CIUDAD DE MÉXICO,7995,#REF!,CIUDAD DE MEXICO,5120,19.3789,-99.2659,BLUMONPAY AGREGADOR,ORUS CASINO,SALA COLIMA,501
01/08/24,451-795-496,CIUDAD DE MÉXICO,7995,#REF!,CIUDAD DE MEXICO,5120,19.3789,-99.2659,PAGO DE VOLADA,ORUS CASINO,SALA COLIMA,218
01/08/24,451-705-650,CIUDAD DE MÉXICO,7995,#REF!,CIUDAD DE MEXICO,5120,19.3789,-99.2659,BLUMONPAY AGREGADOR,ORUS CASINO,SALA MANZANILLO,804
01/08/24,451-795-496,CIUDAD DE MÉXICO,7995,#REF!,CIUDAD DE MEXICO,5120,19.3789,-99.2659,BLUMONPAY AGREGADOR,ORUS CASINO,SALA COLIMA,364
01/08/24,452-709-982,NUEVO LEON,7995,#REF!,MONTERREY,64000,25.7334,-100.3321,BLUMONPAY AGREGADOR,SOLAZ CASINO,SOLAZ ARANDAS,492
01/08/24,452-709-463,NUEVO LEON,7995,#REF!,MONTERREY,64000,25.7334,-100.3321,BLUMONPAY AGREGADOR,SOLAZ CASINO,SOLAZ ARANDAS,24
01/08/24,390-204-954,NUEVO LEON,7995,#REF!,MONTERREY,64000,25.7334,-100.3321,BLUMONPAY AGREGADOR,SOLAZ CASINO,SOLAZ CD JUAREZ,1428
01/08/24,346-236-187,NUEVO LEON,7995,#REF!,MONTERREY,64000,25.7334,-100.3321,PAGO DE VOLADA,SOLAZ CASINO,SOLAZ CD JUAREZ,35
01/08/24,453-793-444,NUEVO LEON,7995,#REF!,MONTERREY,64000,25.7334,-100.3321,BLUMONPAY AGREGADOR,SOLAZ CASINO,SOLAZ CHIHUAHUA,277
01/08/24,9.83E+13,NUEVO LEON,7995,#REF!,MONTERREY,64000,25.7334,-100.3321,PAGO DE VOLADA,SOLAZ CASINO,SOLAZ CD JUAREZ,220
01/08/24,451-705-651,NUEVO LEON,7995,#REF!,MONTERREY,64000,25.7334,-100.3321,PAGO DE VOLADA,SOLAZ CASINO,SOLAZ DELICIAS,455
01/08/24,453-793-449,NUEVO LEON,7995,#REF!,MONTERREY,64000,25.7334,-100.3321,BLUMONPAY AGREGADOR,SOLAZ CASINO,SOLAZ CHIHUAHUA,305
01/08/24,451-395-448,NUEVO LEON,7995,#REF!,MONTERREY,64000,25.7334,-100.3321,BLUMONPAY AGREGADOR,SOLAZ CASINO,SOLAZ DELICIAS,4
01/08/24,451-795-748,NUEVO LEON,7995,#REF!,MONTERREY,64000,25.7334,-100.3321,PAGO DE VOLADA,SOLAZ CASINO,SOLAZ CHIHUAHUA,814
01/08/24,452-969-318,NUEVO LEON,7995,#REF!,MONTERREY,64000,25.7334,-100.3321,BLUMONPAY AGREGADOR,SOLAZ CASINO,SOLAZ ARANDAS,124
01/08/24,452-709-982,NUEVO LEON,7995,#REF!,MONTERREY,64000,25.7334,-100.3321,PAGO DE VOLADA,SOLAZ CASINO,SOLAZ ARANDAS,325
01/08/24,452-709-415,NUEVO LEON,7995,#REF!,MONTERREY,64000,25.7334,-100.3321,BLUMONPAY AGREGADOR,SOLAZ CASINO,SOLAZ CHIHUAHUA,2420
01/08/24,451-705-651,NUEVO LEON,7995,#REF!,MONTERREY,64000,25.7334,-100.3321,BLUMONPAY AGREGADOR,SOLAZ CASINO,SOLAZ DELICIAS,821
01/08/24,390-204-954,NUEVO LEON,7995,#REF!,MONTERREY,64000,25.7334,-100.3321,PAGO DE VOLADA,SOLAZ CASINO,SOLAZ CD JUAREZ,265
01/08/24,9.83E+13,NUEVO LEON,7995,#REF!,MONTERREY,64000,25.7334,-100.3321,PAGO DE VOLADA,SOLAZ CASINO,SOLAZ CD JUAREZ,1
01/08/24,451-795-541,NUEVO LEON,7995,#REF!,MONTERREY,64000,25.7334,-100.3321,PAGO DE VOLADA,SOLAZ CASINO,SOLAZ CHIHUAHUA,749
01/08/24,452-709-463,NUEVO LEON,7995,#REF!,MONTERREY,64000,25.7334,-100.3321,PAGO DE VOLADA,SOLAZ CASINO,SOLAZ ARANDAS,9
01/08/24,346-236-187,NUEVO LEON,7995,#REF!,MONTERREY,64000,25.7334,-100.3321,BLUMONPAY AGREGADOR,SOLAZ CASINO,SOLAZ CD JUAREZ,160
01/08/24,451-795-541,NUEVO LEON,7995,#REF!,MONTERREY,64000,25.7334,-100.3321,BLUMONPAY AGREGADOR,SOLAZ CASINO,SOLAZ CHIHUAHUA,2065
01/08/24,452-709-415,NUEVO LEON,7995,#REF!,MONTERREY,64000,25.7334,-100.3321,PAGO DE VOLADA,SOLAZ CASINO,SOLAZ CHIHUAHUA,969
01/08/24,9.83E+13,NUEVO LEON,7995,#REF!,MONTERREY,64000,25.7334,-100.3321,PAGO DE VOLADA,SOLAZ CASINO,SOLAZ CD JUAREZ,7
01/08/24,451-395-448,NUEVO LEON,7995,#REF!,MONTERREY,64000,25.7334,-100.3321,PAGO DE VOLADA,SOLAZ CASINO,SOLAZ DELICIAS,2
01/08/24,451-795-748,NUEVO LEON,7995,#REF!,MONTERREY,64000,25.7334,-100.3321,BLUMONPAY AGREGADOR,SOLAZ CASINO,SOLAZ CHIHUAHUA,2751
01/08/24,453-793-269,OAXACA,7996,#REF!,CIUDAD DE MEXICO,2410,19.5034,-99.2095,BLUMON PAY DEMO,PIZZA LINDA,-,2
01/08/24,450-621-790,OAXACA,7996,#REF!,CIUDAD DE MEXICO,2410,19.5034,-99.2095,BLUMON PAY DEMO,PIZZA LINDA,-,2
01/08/24,451-705-147,OAXACA,7996,#REF!,CIUDAD DE MEXICO,2410,19.5034,-99.2095,BLUMON PAY DEMO,PIZZA LINDA,-,1
01/08/24,451-705-314,OAXACA,7996,#REF!,CIUDAD DE MEXICO,2410,19.5034,-99.2095,BLUMON PAY DEMO,PIZZA LINDA,-,4
01/08/24,346-929-873,CIUDAD DE MÉXICO,7997,#REF!,CIUDAD DE MEXICO,2100,19.5086,-99.2042,BLUMONPAY AGREGADOR,BLACK FIT,-,4
01/08/24,390-110-775,CIUDAD DE MÉXICO,7999,#REF!,CIUDAD DE MEXICO,11540,19.4343,-99.1933,WELL TALK,CESTA PUNTA DEPORTES,-,1534
01/08/24,451-497-240,CIUDAD DE MÉXICO,7999,#REF!,CIUDAD DE MEXICO,11540,19.4343,-99.1933,WELL TALK,CESTA PUNTA DEPORTES,-,2257
01/08/24,450-531-793,SINALOA,7999,#REF!,AHOME,81200,25.8047,-109.0053,WELL TALK,MONACO,-,726
01/08/24,451-498-109,SINALOA,7999,#REF!,AHOME,81200,25.8047,-109.0053,WELL TALK,MONACO,-,587
01/08/24,450-244-792,SINALOA,7999,#REF!,AHOME,81200,25.8047,-109.0053,WELL TALK,MONACO,-,578
01/08/24,451-397-032,SINALOA,7999,#REF!,AHOME,81200,25.8047,-109.0053,WELL TALK,MONACO,-,175
01/08/24,346-767-277,CIUDAD DE MÉXICO,8011,#REF!,CIUDAD DE MEXICO,11000,19.4234,-99.2033,WELL TALK,DRA. GABRIELA GONZALEZ ,-,2
01/08/24,450-103-787,ESTADO DE MÉXICO,8011,#REF!,ATIZAPAN DE ZARAGOZA,52970,19.5496,-99.2412,TERMINAL TOTAL,COMERCIALIZADORA SEGTEM,MAYAN PETS,48
01/08/24,346-049-438,ESTADO DE MÉXICO,8021,#REF!,NAUCALPAN DE JUAREZ,53129,19.5132,-99.255,WELL TALK,DENTALIA,DENTALIA CUSPIDE,197
01/08/24,452-709-985,CIUDAD DE MÉXICO,8398,#REF!,CIUDAD DE MEXICO,6500,19.4451,-99.1461,PAGO DE VOLADA,MAUNA KEA,DON CANGREJO 2,40
01/08/24,452-709-346,CIUDAD DE MÉXICO,8398,#REF!,CIUDAD DE MEXICO,6500,19.4451,-99.1461,PAGO DE VOLADA,MAUNA KEA,SAKURA CAMPESTRE,55
01/08/24,452-709-403,CIUDAD DE MÉXICO,8398,#REF!,CIUDAD DE MEXICO,6500,19.4451,-99.1461,PAGO DE VOLADA,MAUNA KEA,DON CANGREJO 1,15
01/08/24,346-042-747,CIUDAD DE MÉXICO,8931,#REF!,CIUDAD DE MEXICO,11700,19.4419,-99.197,WELL TALK,LANGIANI UNIFORMES,-,93
